STARLINK-4399           
1 53469U 22099E   26068.87159434  .00000609  00000+0  46410-4 0  9995
2 53469  97.6034 191.4197 0001305 218.2726 141.8408 15.05645790196078
CENTAURI-6              
1 59451U 24066K   26068.32290132  .00007311  00000+0  52686-3 0  9997
2 59451  45.6063  55.7055 0002534 285.4438  74.6166 15.04786474105074
